SL-16 R/B               
1 22285U 92093B   25303.63458601 -.00000117  00000+0 -35503-4 0  9998
2 22285  71.0201 277.2797 0003542 180.0590 180.0534 14.15417953694752
COSMOS 2228             
1 22286U 92094A   25303.89956620  .00003555  00000+0  31020-3 0  9998
2 22286  82.5208   1.5160 0018623  23.7837 336.4242 14.96442935756649
SL-16 R/B               
1 22566U 93016B   25303.52070609 -.00000156  00000+0 -55632-4 0  9990
2 22566  71.0054 128.5736 0009693 174.9864 185.1358 14.15279706683750
COSMOS 2242             
1 22626U 93024A   25303.69383967  .00002876  00000+0  25453-3 0  9994
2 22626  82.5218  30.9719 0016996  27.3005 332.9106 14.95840489760956
SL-16 R/B               
1 22803U 93059B   25303.39458749 -.00000047  00000+0  55540-6 0  9999
2 22803  70.9893 285.8880 0015440  42.5703 317.6614 14.17202774661070
ARIANE 40 R/B           
1 22830U 93061H   25303.60025933  .00000337  00000+0  13974-3 0  9994
2 22830  98.5128   9.9048 0009799 313.1844  46.8521 14.32760515675477
COSMOS 2278             
1 23087U 94023A   25303.88846106 -.00000044  00000+0  16973-5 0  9991
2 23087  71.0516  86.6581 0010639 235.3615 124.6505 14.14330966626453
SL-16 R/B               
1 23088U 94023B   25303.49955449  .00000173  00000+0  11422-3 0  9994
2 23088  71.0014 344.2947 0002263 180.9742 179.1377 14.14991370627675
SL-16 R/B               
1 23343U 94074B   25303.53092620  .00000696  00000+0  10041-3 0  9998
2 23343  97.7262 334.5406 0005190 289.8904 196.9711 14.79214202668006
SL-16 R/B               
1 23405U 94077B   25303.60257934 -.00000109  00000+0 -31180-4 0  9998
2 23405  70.9815 266.1606 0003456 318.2597  41.8262 14.15538331597824
ARIANE 40+ R/B          
1 23561U 95021B   25303.66400253  .00000451  00000+0  15822-3 0  9993
2 23561  98.4701  11.7634 0007134 163.0564 349.9541 14.39644107600538
SL-16 R/B               
1 23705U 95058B   25303.81513618  .00000343  00000+0  19963-3 0  9990
2 23705  71.0197  92.9204 0014118 311.1636  48.8269 14.15470295549470
