CCSDS_OMM_VERS = 2.0
CREATION_DATE  = 
ORIGINATOR     = 

OBJECT_NAME    = SL-16 R/B
OBJECT_ID      = 1992-093B
CENTER_NAME    = EARTH
REF_FRAME      = TEME
TIME_SYSTEM    = UTC
MEAN_ELEMENT_THEORY = SGP/SGP4

EPOCH          = 2025-10-30T15:13:48.231264
MEAN_MOTION    = 14.15417953
ECCENTRICITY   = .0003542
INCLINATION    = 71.0201
RA_OF_ASC_NODE = 277.2797
ARG_OF_PERICENTER = 180.0590
MEAN_ANOMALY   = 180.0534

EPHEMERIS_TYPE = 0
CLASSIFICATION_TYPE = U
NORAD_CAT_ID   = 22285
ELEMENT_SET_NO = 999
REV_AT_EPOCH   = 69475
BSTAR          = -.35503124E-4
MEAN_MOTION_DOT = -.117E-5
MEAN_MOTION_DDOT = 0

CCSDS_OMM_VERS = 2.0
CREATION_DATE  = 
ORIGINATOR     = 

OBJECT_NAME    = COSMOS 2228
OBJECT_ID      = 1992-094A
CENTER_NAME    = EARTH
REF_FRAME      = TEME
TIME_SYSTEM    = UTC
MEAN_ELEMENT_THEORY = SGP/SGP4

EPOCH          = 2025-10-30T21:35:22.519680
MEAN_MOTION    = 14.96442935
ECCENTRICITY   = .00186233
INCLINATION    = 82.5208
RA_OF_ASC_NODE = 1.5160
ARG_OF_PERICENTER = 23.7837
MEAN_ANOMALY   = 336.4242

EPHEMERIS_TYPE = 0
CLASSIFICATION_TYPE = U
NORAD_CAT_ID   = 22286
ELEMENT_SET_NO = 999
REV_AT_EPOCH   = 75664
BSTAR          = .31019788E-3
MEAN_MOTION_DOT = .3555E-4
MEAN_MOTION_DDOT = 0

CCSDS_OMM_VERS = 2.0
CREATION_DATE  = 
ORIGINATOR     = 

OBJECT_NAME    = SL-16 R/B
OBJECT_ID      = 1993-016B
CENTER_NAME    = EARTH
REF_FRAME      = TEME
TIME_SYSTEM    = UTC
MEAN_ELEMENT_THEORY = SGP/SGP4

EPOCH          = 2025-10-30T12:29:49.006176
MEAN_MOTION    = 14.15279706
ECCENTRICITY   = .00096933
INCLINATION    = 71.0054
RA_OF_ASC_NODE = 128.5736
ARG_OF_PERICENTER = 174.9864
MEAN_ANOMALY   = 185.1358

EPHEMERIS_TYPE = 0
CLASSIFICATION_TYPE = U
NORAD_CAT_ID   = 22566
ELEMENT_SET_NO = 999
REV_AT_EPOCH   = 68375
BSTAR          = -.55631647E-4
MEAN_MOTION_DOT = -.156E-5
MEAN_MOTION_DDOT = 0

CCSDS_OMM_VERS = 2.0
CREATION_DATE  = 
ORIGINATOR     = 

OBJECT_NAME    = COSMOS 2242
OBJECT_ID      = 1993-024A
CENTER_NAME    = EARTH
REF_FRAME      = TEME
TIME_SYSTEM    = UTC
MEAN_ELEMENT_THEORY = SGP/SGP4

EPOCH          = 2025-10-30T16:39:07.747488
MEAN_MOTION    = 14.95840489
ECCENTRICITY   = .0016996
INCLINATION    = 82.5218
RA_OF_ASC_NODE = 30.9719
ARG_OF_PERICENTER = 27.3005
MEAN_ANOMALY   = 332.9106

EPHEMERIS_TYPE = 0
CLASSIFICATION_TYPE = U
NORAD_CAT_ID   = 22626
ELEMENT_SET_NO = 999
REV_AT_EPOCH   = 76095
BSTAR          = .25453227E-3
MEAN_MOTION_DOT = .2876E-4
MEAN_MOTION_DDOT = 0

CCSDS_OMM_VERS = 2.0
CREATION_DATE  = 
ORIGINATOR     = 

OBJECT_NAME    = SL-16 R/B
OBJECT_ID      = 1993-059B
CENTER_NAME    = EARTH
REF_FRAME      = TEME
TIME_SYSTEM    = UTC
MEAN_ELEMENT_THEORY = SGP/SGP4

EPOCH          = 2025-10-30T09:28:12.359136
MEAN_MOTION    = 14.17202774
ECCENTRICITY   = .00154406
INCLINATION    = 70.9893
RA_OF_ASC_NODE = 285.8880
ARG_OF_PERICENTER = 42.5703
MEAN_ANOMALY   = 317.6614

EPHEMERIS_TYPE = 0
CLASSIFICATION_TYPE = U
NORAD_CAT_ID   = 22803
ELEMENT_SET_NO = 999
REV_AT_EPOCH   = 66107
BSTAR          = .555396E-6
MEAN_MOTION_DOT = -.47E-6
MEAN_MOTION_DDOT = 0

CCSDS_OMM_VERS = 2.0
CREATION_DATE  = 
ORIGINATOR     = 

OBJECT_NAME    = ARIANE 40 R/B
OBJECT_ID      = 1993-061H
CENTER_NAME    = EARTH
REF_FRAME      = TEME
TIME_SYSTEM    = UTC
MEAN_ELEMENT_THEORY = SGP/SGP4

EPOCH          = 2025-10-30T14:24:22.406112
MEAN_MOTION    = 14.32760515
ECCENTRICITY   = .0009799
INCLINATION    = 98.5128
RA_OF_ASC_NODE = 9.9048
ARG_OF_PERICENTER = 313.1844
MEAN_ANOMALY   = 46.8521

EPHEMERIS_TYPE = 0
CLASSIFICATION_TYPE = U
NORAD_CAT_ID   = 22830
ELEMENT_SET_NO = 999
REV_AT_EPOCH   = 67547
BSTAR          = .13974024E-3
MEAN_MOTION_DOT = .337E-5
MEAN_MOTION_DDOT = 0

CCSDS_OMM_VERS = 2.0
CREATION_DATE  = 
ORIGINATOR     = 

OBJECT_NAME    = COSMOS 2278
OBJECT_ID      = 1994-023A
CENTER_NAME    = EARTH
REF_FRAME      = TEME
TIME_SYSTEM    = UTC
MEAN_ELEMENT_THEORY = SGP/SGP4

EPOCH          = 2025-10-30T21:19:23.035584
MEAN_MOTION    = 14.14330966
ECCENTRICITY   = .00106394
INCLINATION    = 71.0516
RA_OF_ASC_NODE = 86.6581
ARG_OF_PERICENTER = 235.3615
MEAN_ANOMALY   = 124.6505

EPHEMERIS_TYPE = 0
CLASSIFICATION_TYPE = U
NORAD_CAT_ID   = 23087
ELEMENT_SET_NO = 999
REV_AT_EPOCH   = 62645
BSTAR          = .1697317E-5
MEAN_MOTION_DOT = -.44E-6
MEAN_MOTION_DDOT = 0

CCSDS_OMM_VERS = 2.0
CREATION_DATE  = 
ORIGINATOR     = 

OBJECT_NAME    = SL-16 R/B
OBJECT_ID      = 1994-023B
CENTER_NAME    = EARTH
REF_FRAME      = TEME
TIME_SYSTEM    = UTC
MEAN_ELEMENT_THEORY = SGP/SGP4

EPOCH          = 2025-10-30T11:59:21.507936
MEAN_MOTION    = 14.14991370
ECCENTRICITY   = .00022634
INCLINATION    = 71.0014
RA_OF_ASC_NODE = 344.2947
ARG_OF_PERICENTER = 180.9742
MEAN_ANOMALY   = 179.1377

EPHEMERIS_TYPE = 0
CLASSIFICATION_TYPE = U
NORAD_CAT_ID   = 23088
ELEMENT_SET_NO = 999
REV_AT_EPOCH   = 62767
BSTAR          = .1142171E-3
MEAN_MOTION_DOT = .173E-5
MEAN_MOTION_DDOT = 0

CCSDS_OMM_VERS = 2.0
CREATION_DATE  = 
ORIGINATOR     = 

OBJECT_NAME    = SL-16 R/B
OBJECT_ID      = 1994-074B
CENTER_NAME    = EARTH
REF_FRAME      = TEME
TIME_SYSTEM    = UTC
MEAN_ELEMENT_THEORY = SGP/SGP4

EPOCH          = 2025-10-30T12:44:32.023680
MEAN_MOTION    = 14.79214202
ECCENTRICITY   = .00051901
INCLINATION    = 97.7262
RA_OF_ASC_NODE = 334.5406
ARG_OF_PERICENTER = 289.8904
MEAN_ANOMALY   = 196.9711

EPHEMERIS_TYPE = 0
CLASSIFICATION_TYPE = U
NORAD_CAT_ID   = 23343
ELEMENT_SET_NO = 999
REV_AT_EPOCH   = 66800
BSTAR          = .10040934E-3
MEAN_MOTION_DOT = .696E-5
MEAN_MOTION_DDOT = 0

CCSDS_OMM_VERS = 2.0
CREATION_DATE  = 
ORIGINATOR     = 

OBJECT_NAME    = SL-16 R/B
OBJECT_ID      = 1994-077B
CENTER_NAME    = EARTH
REF_FRAME      = TEME
TIME_SYSTEM    = UTC
MEAN_ELEMENT_THEORY = SGP/SGP4

EPOCH          = 2025-10-30T14:27:42.854976
MEAN_MOTION    = 14.15538331
ECCENTRICITY   = .0003456
INCLINATION    = 70.9815
RA_OF_ASC_NODE = 266.1606
ARG_OF_PERICENTER = 318.2597
MEAN_ANOMALY   = 41.8262

EPHEMERIS_TYPE = 0
CLASSIFICATION_TYPE = U
NORAD_CAT_ID   = 23405
ELEMENT_SET_NO = 999
REV_AT_EPOCH   = 59782
BSTAR          = -.31179796E-4
MEAN_MOTION_DOT = -.109E-5
MEAN_MOTION_DDOT = 0

CCSDS_OMM_VERS = 2.0
CREATION_DATE  = 
ORIGINATOR     = 

OBJECT_NAME    = ARIANE 40+ R/B
OBJECT_ID      = 1995-021B
CENTER_NAME    = EARTH
REF_FRAME      = TEME
TIME_SYSTEM    = UTC
MEAN_ELEMENT_THEORY = SGP/SGP4

EPOCH          = 2025-10-30T15:56:09.818592
MEAN_MOTION    = 14.39644107
ECCENTRICITY   = .00071347
INCLINATION    = 98.4701
RA_OF_ASC_NODE = 11.7634
ARG_OF_PERICENTER = 163.0564
MEAN_ANOMALY   = 349.9541

EPHEMERIS_TYPE = 0
CLASSIFICATION_TYPE = U
NORAD_CAT_ID   = 23561
ELEMENT_SET_NO = 999
REV_AT_EPOCH   = 60053
BSTAR          = .15822395E-3
MEAN_MOTION_DOT = .451E-5
MEAN_MOTION_DDOT = 0

CCSDS_OMM_VERS = 2.0
CREATION_DATE  = 
ORIGINATOR     = 

OBJECT_NAME    = SL-16 R/B
OBJECT_ID      = 1995-058B
CENTER_NAME    = EARTH
REF_FRAME      = TEME
TIME_SYSTEM    = UTC
MEAN_ELEMENT_THEORY = SGP/SGP4

EPOCH          = 2025-10-30T19:33:47.765952
MEAN_MOTION    = 14.15470295
ECCENTRICITY   = .00141189
INCLINATION    = 71.0197
RA_OF_ASC_NODE = 92.9204
ARG_OF_PERICENTER = 311.1636
MEAN_ANOMALY   = 48.8269

EPHEMERIS_TYPE = 0
CLASSIFICATION_TYPE = U
NORAD_CAT_ID   = 23705
ELEMENT_SET_NO = 999
REV_AT_EPOCH   = 54947
BSTAR          = .19963491E-3
MEAN_MOTION_DOT = .343E-5
MEAN_MOTION_DDOT = 0

